CCSDS_OMM_VERS = 2.0
CREATION_DATE  = 
ORIGINATOR     = 

OBJECT_NAME    = SL-14 R/B
OBJECT_ID      = 1991-042B
CENTER_NAME    = EARTH
REF_FRAME      = TEME
TIME_SYSTEM    = UTC
MEAN_ELEMENT_THEORY = SGP/SGP4

EPOCH          = 2026-01-27T08:44:02.789952
MEAN_MOTION    = 14.81789744
ECCENTRICITY   = .00176246
INCLINATION    = 82.4910
RA_OF_ASC_NODE = 258.9440
ARG_OF_PERICENTER = 21.7696
MEAN_ANOMALY   = 338.4263

EPHEMERIS_TYPE = 0
CLASSIFICATION_TYPE = U
NORAD_CAT_ID   = 21423
ELEMENT_SET_NO = 999
REV_AT_EPOCH   = 84695
BSTAR          = .7805649E-4
MEAN_MOTION_DOT = .641E-5
MEAN_MOTION_DDOT = 0

CCSDS_OMM_VERS = 2.0
CREATION_DATE  = 
ORIGINATOR     = 

OBJECT_NAME    = ERS-1
OBJECT_ID      = 1991-050A
CENTER_NAME    = EARTH
REF_FRAME      = TEME
TIME_SYSTEM    = UTC
MEAN_ELEMENT_THEORY = SGP/SGP4

EPOCH          = 2026-01-27T11:26:45.210624
MEAN_MOTION    = 14.39412187
ECCENTRICITY   = .00313762
INCLINATION    = 98.7898
RA_OF_ASC_NODE = 44.6756
ARG_OF_PERICENTER = 326.2226
MEAN_ANOMALY   = 33.6961

EPHEMERIS_TYPE = 0
CLASSIFICATION_TYPE = U
NORAD_CAT_ID   = 21574
ELEMENT_SET_NO = 999
REV_AT_EPOCH   = 80980
BSTAR          = .21624201E-3
MEAN_MOTION_DOT = .63E-5
MEAN_MOTION_DDOT = 0

CCSDS_OMM_VERS = 2.0
CREATION_DATE  = 
ORIGINATOR     = 

OBJECT_NAME    = ARIANE 40 R/B
OBJECT_ID      = 1991-050F
CENTER_NAME    = EARTH
REF_FRAME      = TEME
TIME_SYSTEM    = UTC
MEAN_ELEMENT_THEORY = SGP/SGP4

EPOCH          = 2026-01-27T15:01:11.031168
MEAN_MOTION    = 14.42860658
ECCENTRICITY   = .00030971
INCLINATION    = 98.2098
RA_OF_ASC_NODE = 81.3864
ARG_OF_PERICENTER = 176.4329
MEAN_ANOMALY   = 183.6884

EPHEMERIS_TYPE = 0
CLASSIFICATION_TYPE = U
NORAD_CAT_ID   = 21610
ELEMENT_SET_NO = 999
REV_AT_EPOCH   = 81307
BSTAR          = .18379281E-3
MEAN_MOTION_DOT = .572E-5
MEAN_MOTION_DDOT = 0

CCSDS_OMM_VERS = 2.0
CREATION_DATE  = 
ORIGINATOR     = 

OBJECT_NAME    = INTERCOSMOS 25
OBJECT_ID      = 1991-086A
CENTER_NAME    = EARTH
REF_FRAME      = TEME
TIME_SYSTEM    = UTC
MEAN_ELEMENT_THEORY = SGP/SGP4

EPOCH          = 2026-01-27T12:58:45.871680
MEAN_MOTION    = 12.11887748
ECCENTRICITY   = .14862515
INCLINATION    = 82.6092
RA_OF_ASC_NODE = 334.8747
ARG_OF_PERICENTER = 205.6010
MEAN_ANOMALY   = 146.3632

EPHEMERIS_TYPE = 0
CLASSIFICATION_TYPE = U
NORAD_CAT_ID   = 21819
ELEMENT_SET_NO = 999
REV_AT_EPOCH   = 49170
BSTAR          = .38378575E-3
MEAN_MOTION_DOT = .1948E-4
MEAN_MOTION_DDOT = 0

CCSDS_OMM_VERS = 2.0
CREATION_DATE  = 
ORIGINATOR     = 

OBJECT_NAME    = SL-8 R/B
OBJECT_ID      = 1992-008B
CENTER_NAME    = EARTH
REF_FRAME      = TEME
TIME_SYSTEM    = UTC
MEAN_ELEMENT_THEORY = SGP/SGP4

EPOCH          = 2026-01-27T06:49:30.653184
MEAN_MOTION    = 13.75968534
ECCENTRICITY   = .0033367
INCLINATION    = 82.9283
RA_OF_ASC_NODE = 298.5770
ARG_OF_PERICENTER = 249.8779
MEAN_ANOMALY   = 227.1003

EPHEMERIS_TYPE = 0
CLASSIFICATION_TYPE = U
NORAD_CAT_ID   = 21876
ELEMENT_SET_NO = 999
REV_AT_EPOCH   = 70372
BSTAR          = .77688E-4
MEAN_MOTION_DOT = .9E-6
MEAN_MOTION_DDOT = 0

CCSDS_OMM_VERS = 2.0
CREATION_DATE  = 
ORIGINATOR     = 

OBJECT_NAME    = SL-8 R/B
OBJECT_ID      = 1992-020B
CENTER_NAME    = EARTH
REF_FRAME      = TEME
TIME_SYSTEM    = UTC
MEAN_ELEMENT_THEORY = SGP/SGP4

EPOCH          = 2026-01-27T12:32:15.226080
MEAN_MOTION    = 13.75542334
ECCENTRICITY   = .00299608
INCLINATION    = 82.9310
RA_OF_ASC_NODE = 184.3193
ARG_OF_PERICENTER = 54.3870
MEAN_ANOMALY   = 10.0651

EPHEMERIS_TYPE = 0
CLASSIFICATION_TYPE = U
NORAD_CAT_ID   = 21938
ELEMENT_SET_NO = 999
REV_AT_EPOCH   = 69547
BSTAR          = .19211811E-3
MEAN_MOTION_DOT = .201E-5
MEAN_MOTION_DDOT = 0

CCSDS_OMM_VERS = 2.0
CREATION_DATE  = 
ORIGINATOR     = 

OBJECT_NAME    = USA 81
OBJECT_ID      = 1992-023A
CENTER_NAME    = EARTH
REF_FRAME      = TEME
TIME_SYSTEM    = UTC
MEAN_ELEMENT_THEORY = SGP/SGP4

EPOCH          = 2026-01-27T10:37:13.597536
MEAN_MOTION    = 14.32350803
ECCENTRICITY   = .00022456
INCLINATION    = 85.0115
RA_OF_ASC_NODE = 155.2222
ARG_OF_PERICENTER = 112.7449
MEAN_ANOMALY   = 247.3981

EPHEMERIS_TYPE = 0
CLASSIFICATION_TYPE = U
NORAD_CAT_ID   = 21949
ELEMENT_SET_NO = 999
REV_AT_EPOCH   = 8888
BSTAR          = .13574866E-3
MEAN_MOTION_DOT = .386E-5
MEAN_MOTION_DDOT = 0

CCSDS_OMM_VERS = 2.0
CREATION_DATE  = 
ORIGINATOR     = 

OBJECT_NAME    = COSMOS 2219
OBJECT_ID      = 1992-076A
CENTER_NAME    = EARTH
REF_FRAME      = TEME
TIME_SYSTEM    = UTC
MEAN_ELEMENT_THEORY = SGP/SGP4

EPOCH          = 2026-01-27T15:13:07.768416
MEAN_MOTION    = 14.14080207
ECCENTRICITY   = .00207682
INCLINATION    = 71.0607
RA_OF_ASC_NODE = 103.8986
ARG_OF_PERICENTER = 264.0753
MEAN_ANOMALY   = 95.8002

EPHEMERIS_TYPE = 0
CLASSIFICATION_TYPE = U
NORAD_CAT_ID   = 22219
ELEMENT_SET_NO = 999
REV_AT_EPOCH   = 71257
BSTAR          = -.84444687E-4
MEAN_MOTION_DOT = -.208E-5
MEAN_MOTION_DDOT = 0

CCSDS_OMM_VERS = 2.0
CREATION_DATE  = 
ORIGINATOR     = 

OBJECT_NAME    = SL-16 R/B
OBJECT_ID      = 1992-076B
CENTER_NAME    = EARTH
REF_FRAME      = TEME
TIME_SYSTEM    = UTC
MEAN_ELEMENT_THEORY = SGP/SGP4

EPOCH          = 2026-01-27T16:07:37.152192
MEAN_MOTION    = 14.16850371
ECCENTRICITY   = .00122492
INCLINATION    = 70.9991
RA_OF_ASC_NODE = 274.7785
ARG_OF_PERICENTER = 167.7919
MEAN_ANOMALY   = 222.3938

EPHEMERIS_TYPE = 0
CLASSIFICATION_TYPE = U
NORAD_CAT_ID   = 22220
ELEMENT_SET_NO = 999
REV_AT_EPOCH   = 71602
BSTAR          = .13080071E-4
MEAN_MOTION_DOT = -.22E-6
MEAN_MOTION_DDOT = 0

CCSDS_OMM_VERS = 2.0
CREATION_DATE  = 
ORIGINATOR     = 

OBJECT_NAME    = COSMOS 2221
OBJECT_ID      = 1992-080A
CENTER_NAME    = EARTH
REF_FRAME      = TEME
TIME_SYSTEM    = UTC
MEAN_ELEMENT_THEORY = SGP/SGP4

EPOCH          = 2026-01-27T12:07:30.661536
MEAN_MOTION    = 14.96015542
ECCENTRICITY   = .00138691
INCLINATION    = 82.5063
RA_OF_ASC_NODE = 318.5179
ARG_OF_PERICENTER = 338.1625
MEAN_ANOMALY   = 21.9004

EPHEMERIS_TYPE = 0
CLASSIFICATION_TYPE = U
NORAD_CAT_ID   = 22236
ELEMENT_SET_NO = 999
REV_AT_EPOCH   = 77463
BSTAR          = .31564196E-3
MEAN_MOTION_DOT = .3572E-4
MEAN_MOTION_DDOT = 0

CCSDS_OMM_VERS = 2.0
CREATION_DATE  = 
ORIGINATOR     = 

OBJECT_NAME    = SL-16 R/B
OBJECT_ID      = 1992-093B
CENTER_NAME    = EARTH
REF_FRAME      = TEME
TIME_SYSTEM    = UTC
MEAN_ELEMENT_THEORY = SGP/SGP4

EPOCH          = 2026-01-27T14:37:32.001888
MEAN_MOTION    = 14.15443674
ECCENTRICITY   = .00046624
INCLINATION    = 71.0218
RA_OF_ASC_NODE = 90.5081
ARG_OF_PERICENTER = 337.6636
MEAN_ANOMALY   = 22.4284

EPHEMERIS_TYPE = 0
CLASSIFICATION_TYPE = U
NORAD_CAT_ID   = 22285
ELEMENT_SET_NO = 999
REV_AT_EPOCH   = 70734
BSTAR          = -.3717831E-5
MEAN_MOTION_DOT = -.55E-6
MEAN_MOTION_DDOT = 0

CCSDS_OMM_VERS = 2.0
CREATION_DATE  = 
ORIGINATOR     = 

OBJECT_NAME    = COSMOS 2228
OBJECT_ID      = 1992-094A
CENTER_NAME    = EARTH
REF_FRAME      = TEME
TIME_SYSTEM    = UTC
MEAN_ELEMENT_THEORY = SGP/SGP4

EPOCH          = 2026-01-27T14:46:02.155872
MEAN_MOTION    = 14.96993536
ECCENTRICITY   = .00196244
INCLINATION    = 82.5175
RA_OF_ASC_NODE = 276.6389
ARG_OF_PERICENTER = 80.5709
MEAN_ANOMALY   = 279.7731

EPHEMERIS_TYPE = 0
CLASSIFICATION_TYPE = U
NORAD_CAT_ID   = 22286
ELEMENT_SET_NO = 999
REV_AT_EPOCH   = 76991
BSTAR          = .29308269E-3
MEAN_MOTION_DOT = .341E-4
MEAN_MOTION_DDOT = 0

